TITAN 4B R/B            
1 26474U 00047B   22331.19071908  .00001186  00000+0  10891-3 0  9997
2 26474  67.9917 136.7441 0059016 293.6119  65.8834 14.97402542212807
ENVISAT                 
1 27386U 02009A   22331.41864937  .00000122  00000+0  53690-4 0  9991
2 27386  98.2047 305.0500 0001312  86.1222  87.4232 14.38189558 86887
IDEFIX & ARIANE 42P R/B 
1 27422U 02021B   22331.33044760  .00000143  00000+0  72591-4 0  9995
2 27422  98.4687 272.5680 0013124 114.0720 246.1836 14.29492179 72723
AQUA                    
1 27424U 02022A   22331.49586161  .00000474  00000+0  11446-3 0  9999
2 27424  98.2650 271.9724 0001961  78.5558  45.8177 14.57484532 93937
CZ-4B R/B               
1 27432U 02024C   22331.12188050  .00000011  00000+0  29251-4 0  9996
2 27432  99.0479 358.4311 0050494 176.3846 253.8855 14.14163624 59811
MIDORI II (ADEOS-II)    
1 27597U 02056A   22331.35299644  .00000150  00000+0  78530-4 0  9998
2 27597  98.6254 272.9049 0000169 112.0751 248.0447 14.27689510 39219
H-2A R/B                
1 27601U 02056E   22331.43681973  .00000190  00000+0  82752-4 0  9998
2 27601  98.1817 328.8553 0072796 134.4424  35.6834 14.32156482 42505
CZ-4B R/B               
1 28059U 03049C   22331.32413927  .00000252  00000+0  72337-4 0  9996
2 28059  98.5366 270.7963 0048799 290.4722  69.1238 14.52896588 12468
CZ-2C R/B               
1 28222U 04012C   22331.42857573  .00003114  00000+0  17184-3 0  9997
2 28222  97.7892 315.5813 0042333 211.9771 307.5467 15.13986874 20881
SL-16 R/B               
1 28353U 04021B   22331.45425293  .00000175  00000+0  11653-3 0  9994
2 28353  71.0023 226.4003 0003438  37.8194 322.3170 14.14292457953399
CZ-4B R/B               
1 28415U 04035C   22331.37340038  .00002160  00000+0  13728-3 0  9993
2 28415  97.4971   8.2059 0049250 179.6388 180.4885 15.08894805998159
CZ-2C R/B               
1 28480U 04046B   22331.34520989  .00000112  00000+0  56978-4 0  9999
2 28480  98.0844 306.3993 0142824  99.6417 262.0932 14.25885119937655
ARIANE 5 R/B            
1 28499U 04049H   22331.34377969  .00000591  00000+0  79352-4 0  9992
2 28499  98.1148  89.7426 0089853 268.2610 110.9243 14.80642854968183
CZ-2D R/B               
1 28738U 05024B   22331.48791284  .00003010  00000+0  16448-3 0  9992
2 28738  97.3532 334.1146 0010553 342.2958  17.7906 15.14998432956420
SUZAKU (ASTRO-EII)      
1 28773U 05025A   22331.35049421  .00006985  00000+0  28408-3 0  9990
2 28773  31.3814 315.5336 0004794 221.1802 138.8485 15.23130459959862
ALOS (DAICHI)           
1 28931U 06002A   22310.47227537 -.00000030  00000+0  29392-5 0  9999
2 28931  97.9551 270.1655 0001426 133.0925 227.0374 14.63410704895190
H-2A R/B                
1 28932U 06002B   22331.42923038  .00002620  00000+0  23407-3 0  9992
2 28932  98.2709  22.7105 0083894 277.0423  82.1261 14.94261095914370
AKARI (ASTRO-F)         
1 28939U 06005A   22331.53812801  .00034932  00000+0  45012-3 0  9996
2 28939  98.1873  67.1364 0054121  50.9236 309.6813 15.57158414918351
CZ-4B R/B               
1 29093U 06015B   22331.16885556  .00047848  00000+0  37744-3 0  9998
2 29093  97.5703 202.8191 0026846 302.3098  57.5564 15.70793451924986
RESURS-DK 1             
1 29228U 06021A   22331.35902929  .00000978  00000+0  78442-4 0  9994
2 29228  69.9359  73.7307 0004900 210.2190 149.8690 15.03670581906863
GENESIS 1               
1 29252U 06029A   22331.22169895  .00004686  00000+0  20487-3 0  9997
2 29252  64.5217 256.0300 0049571 238.2683 121.3606 15.22321098903735
CZ-4B R/B               
1 29507U 06046C   22331.08582143  .00001526  00000+0  11747-3 0  9997
2 29507  97.7138   0.4361 0046003  47.1547 313.3528 15.02381375879289
CZ-2C R/B               
1 31114U 07010B   22331.45741746  .00000013  00000+0  24379-4 0  9999
2 31114  98.2537 133.4337 0059649 181.5155 178.5851 14.19472178809689
COSMO-SKYMED 1          
1 31598U 07023A   22331.10230766  .00000328  00000+0  47786-4 0  9992
2 31598  97.8875 152.4574 0001353  89.2577 270.8763 14.82157931837057
GENESIS 2               
1 31789U 07028A   22331.41523623  .00004862  00000+0  21680-3 0  9991
2 31789  64.4960 299.0008 0059149 289.9541  69.5218 15.21131246850676
COSMOS 2428             
1 31792U 07029A   22331.35923406 -.00000159  00000+0 -59917-4 0  9994
2 31792  70.9506 198.2016 0008879 177.6201 182.4963 14.12597158794853
SL-16 R/B               
1 31793U 07029B   22331.34517885  .00000403  00000+0  23522-3 0  9996
2 31793  70.9743 170.6599 0002057 279.8358 253.7990 14.14490238795897
KORONAS-FOTON           
1 33504U 09003A   22331.52235605  .00002650  00000+0  12790-3 0  9990
2 33504  82.4425  53.1560 0019412  67.3242 293.0041 15.18089802762694
CZ-2C R/B               
1 37731U 11030B   22331.46715490  .00000571  00000+0  89488-4 0  9996
2 37731  97.6904 309.8342 0057338 280.7046 239.9721 14.75301741613084
H-2A R/B                
1 38341U 12025E   22331.21234654  .00001054  00000+0  12775-3 0  9991
2 38341  98.4811 197.1403 0053193 242.6780 116.9011 14.85095866569806
CUSAT 2 & FALCON 9 R/B  
1 39271U 13055G   22331.21263005  .00020972  00000+0  42978-3 0  9998
2 39271  80.9554  15.0235 0497341 334.0627  23.6382 14.70575744480622
SHIJIAN-16 (SJ-16)      
1 39358U 13057A   22331.60262457  .00000810  00000+0  94522-4 0  9991
2 39358  74.9741 282.2682 0017762 132.3699 227.9017 14.86454504493238
CZ-2C R/B               
1 39364U 13059B   22331.11461197  .00009258  00000+0  27256-3 0  9992
2 39364  97.1377  19.0142 0041574 107.8592 252.7193 15.34391499505121
SL-4 R/B                
1 39679U 14021B   22331.26701400  .00002741  00000+0  13943-3 0  9999
2 39679  51.6142 277.1271 0161884 164.7395 195.8543 15.09893629473703
ALOS-2                  
1 39766U 14029A   22331.12952653 -.00000380  00000+0 -43980-4 0  9991
2 39766  97.9232  65.9292 0001363  90.1891 269.9503 14.79467687459684
CZ-2C R/B               
1 40306U 14071B   22331.43935544  .00099599  00000+0  44492-3 0  9990
2 40306  97.4270 315.1166 0010512 103.3054 256.9388 15.83881503452501
SL-27 R/B               
1 40354U 14084B   22331.48069359  .00005952  00000+0  11974-3 0  9993
2 40354  74.7364 335.5097 0030343  69.1690 291.2770 15.46270241445772
YAOGAN-29               
1 41038U 15069A   22331.58836357  .00000297  00000+0  45288-4 0  9991
2 41038  98.0614 332.6049 0000749  35.8988 324.2280 14.80997309378430
ASTRO-H (HITOMI)        
1 41337U 16012A   22331.47670600  .00001194  00000+0  87241-4 0  9999
2 41337  31.0044 104.5926 0011970 260.5568  99.3714 14.99871084371611
HXMT (HUIYAN)           
1 42758U 17034A   22331.43862439  .00002141  00000+0  13712-3 0  9995
2 42758  43.0163 171.3697 0010367 233.0173 197.7791 15.11494074300836
CZ-2C R/B               
1 43521U 18054D   22331.37028000  .00004069  00000+0  20243-3 0  9996
2 43521  35.1532  68.0974 0076431  86.4469 274.4984 15.14575762244380
AEOLUS                  
1 43600U 18066A   22331.01045220  .00087449  00000+0  34300-3 0  9993
2 43600  96.7330 334.2770 0013006  97.7918 262.4832 15.86586630246906
SAOCOM 1A               
1 43641U 18076A   22331.24576664  .00000278  00000+0  41459-4 0  9994
2 43641  97.8854 155.6259 0001309  85.9105 274.2244 14.82152498223843
H-2A R/B                
1 43682U 18084L   22331.32504328  .00003537  00000+0  24256-3 0  9991
2 43682  98.8963 319.1448 0055027  88.3176 272.4349 15.05636611223811
SAOCOM 1B               
1 46265U 20059A   22331.27693416  .00000135  00000+0  23566-4 0  9992
2 46265  97.8860 154.7168 0001394  89.9293 270.2097 14.82147271121246
CSS (TIANHE)            
1 48274U 21035A   22331.72336205  .00018232  00000+0  22883-3 0  9996
2 48274  41.4770 303.0033 0005758 320.9799 217.9384 15.59274593 90335
2022-019U               
1 51842U 22019U   22331.53952100  .00005301  00000+0  19602-3 0  9999
2 51842  97.5474  50.4788 0064482 337.2751 147.5184 15.26186829 41634
SZ-13 MODULE            
1 52260U 21092C   22331.23041074  .00061421  00000+0  30971-3 0  9997
2 52260  41.4776 285.9218 0013770 223.2928 136.6836 15.80560997 35031
CZ-2C R/B               
1 52794U 22058K   22331.41068647  .00002007  00000+0  11961-3 0  9990
2 52794  50.1722 121.7453 0101048  24.2709 336.2956 15.12014446 26939
